{
  "type": "FeatureCollection",
  "features": [
    {
      "type": "Feature",
      "properties": {
        "norad_id": 44334,
        "name": "EUTELSAT 7C",
        "group": "eutelsat",
        "lat": 0.02038403645717146,
        "lon": -24.80900656466197,
        "alt_km": 35778.55706931629,
        "timestamp": "2025-12-27T15:27:10.815042+00:00",
        "meta_object_name": "EUTELSAT 7C",
        "meta_object_id": "2019-034B",
        "meta_epoch": "2025-12-27T06:13:38.544960",
        "meta_mean_motion": 1.00278899,
        "meta_eccentricity": 0.00036928,
        "meta_inclination": 0.0728,
        "meta_ra_of_asc_node": 180.5045,
        "meta_arg_of_pericenter": 85.2079,
        "meta_mean_anomaly": 290.6728,
        "meta_ephemeris_type": 0,
        "meta_classification_type": "U",
        "meta_norad_cat_id": 44334,
        "meta_element_set_no": 999,
        "meta_rev_at_epoch": 511,
        "meta_bstar": 0,
        "meta_mean_motion_dot": 7.2e-07,
        "meta_mean_motion_ddot": 0,
        "tle_line1": "1 44334U 19034B   25361.25947390  .00000072  00000+0  00000+0 0  9998",
        "tle_line2": "2 44334   0.0728 180.5045 0003692  85.2079 290.6728  1.00278899  5116"
      },
      "geometry": {
        "type": "Point",
        "coordinates": [
          -24.80900656466197,
          0.02038403645717146
        ]
      }
    },
    {
      "type": "Feature",
      "properties": {
        "norad_id": 44624,
        "name": "EUTELSAT 5 WEST B",
        "group": "eutelsat",
        "lat": -0.03839363821934295,
        "lon": -36.81407320042667,
        "alt_km": 35777.05806387838,
        "timestamp": "2025-12-27T15:27:10.815054+00:00",
        "meta_object_name": "EUTELSAT 5 WEST B",
        "meta_object_id": "2019-067A",
        "meta_epoch": "2025-12-27T04:42:38.441664",
        "meta_mean_motion": 1.00271215,
        "meta_eccentricity": 0.00032747,
        "meta_inclination": 0.0618,
        "meta_ra_of_asc_node": 348.7107,
        "meta_arg_of_pericenter": 285.9376,
        "meta_mean_anomaly": 246.9417,
        "meta_ephemeris_type": 0,
        "meta_classification_type": "U",
        "meta_norad_cat_id": 44624,
        "meta_element_set_no": 999,
        "meta_rev_at_epoch": 2271,
        "meta_bstar": 0,
        "meta_mean_motion_dot": -2e-07,
        "meta_mean_motion_ddot": 0,
        "tle_line1": "1 44624U 19067A   25361.19627826 -.00000020  00000+0  00000+0 0  9992",
        "tle_line2": "2 44624   0.0618 348.7107 0003274 285.9376 246.9417  1.00271215 22717"
      },
      "geometry": {
        "type": "Point",
        "coordinates": [
          -36.81407320042667,
          -0.03839363821934295
        ]
      }
    },
    {
      "type": "Feature",
      "properties": {
        "norad_id": 45027,
        "name": "EUTELSAT KONNECT",
        "group": "eutelsat",
        "lat": -0.06615797317029505,
        "lon": -24.59907203087192,
        "alt_km": 35778.35566380803,
        "timestamp": "2025-12-27T15:27:10.815066+00:00",
        "meta_object_name": "EUTELSAT KONNECT",
        "meta_object_id": "2020-005B",
        "meta_epoch": "2025-12-27T06:13:38.544960",
        "meta_mean_motion": 1.00279327,
        "meta_eccentricity": 0.00020632,
        "meta_inclination": 0.0663,
        "meta_ra_of_asc_node": 94.1475,
        "meta_arg_of_pericenter": 191.175,
        "meta_mean_anomaly": 271.2936,
        "meta_ephemeris_type": 0,
        "meta_classification_type": "U",
        "meta_norad_cat_id": 45027,
        "meta_element_set_no": 999,
        "meta_rev_at_epoch": 2261,
        "meta_bstar": 0,
        "meta_mean_motion_dot": 7.3e-07,
        "meta_mean_motion_ddot": 0,
        "tle_line1": "1 45027U 20005B   25361.25947390  .00000073  00000+0  00000+0 0  9999",
        "tle_line2": "2 45027   0.0663  94.1475 0002063 191.1750 271.2936  1.00279327 22612"
      },
      "geometry": {
        "type": "Point",
        "coordinates": [
          -24.59907203087192,
          -0.06615797317029505
        ]
      }
    },
    {
      "type": "Feature",
      "properties": {
        "norad_id": 49056,
        "name": "EUTELSAT QUANTUM",
        "group": "eutelsat",
        "lat": -0.0036825886171219244,
        "lon": 15.900612914449377,
        "alt_km": 35786.58649501885,
        "timestamp": "2025-12-27T15:27:10.815078+00:00",
        "meta_object_name": "EUTELSAT QUANTUM",
        "meta_object_id": "2021-069B",
        "meta_epoch": "2025-12-27T01:14:43.109376",
        "meta_mean_motion": 1.00271592,
        "meta_eccentricity": 0.00036516,
        "meta_inclination": 0.0149,
        "meta_ra_of_asc_node": 31.5305,
        "meta_arg_of_pericenter": 252.4924,
        "meta_mean_anomaly": 238.1442,
        "meta_ephemeris_type": 0,
        "meta_classification_type": "U",
        "meta_norad_cat_id": 49056,
        "meta_element_set_no": 999,
        "meta_rev_at_epoch": 1620,
        "meta_bstar": 0,
        "meta_mean_motion_dot": 1.48e-06,
        "meta_mean_motion_ddot": 0,
        "tle_line1": "1 49056U 21069B   25361.05188784  .00000148  00000+0  00000+0 0  9991",
        "tle_line2": "2 49056   0.0149  31.5305 0003651 252.4924 238.1442  1.00271592 16200"
      },
      "geometry": {
        "type": "Point",
        "coordinates": [
          15.900612914449377,
          -0.0036825886171219244
        ]
      }
    },
    {
      "type": "Feature",
      "properties": {
        "norad_id": 53765,
        "name": "EUTELSAT KONNECT VHTS",
        "group": "eutelsat",
        "lat": -0.05663440829450661,
        "lon": -29.109594233554517,
        "alt_km": 35784.94728079241,
        "timestamp": "2025-12-27T15:27:10.815091+00:00",
        "meta_object_name": "EUTELSAT KONNECT VHTS",
        "meta_object_id": "2022-110A",
        "meta_epoch": "2025-12-26T23:19:08.450112",
        "meta_mean_motion": 1.00268307,
        "meta_eccentricity": 0.00027888,
        "meta_inclination": 0.0593,
        "meta_ra_of_asc_node": 98.4997,
        "meta_arg_of_pericenter": 152.36,
        "meta_mean_anomaly": 197.3421,
        "meta_ephemeris_type": 0,
        "meta_classification_type": "U",
        "meta_norad_cat_id": 53765,
        "meta_element_set_no": 999,
        "meta_rev_at_epoch": 510,
        "meta_bstar": 0,
        "meta_mean_motion_dot": 3.9e-07,
        "meta_mean_motion_ddot": 0,
        "tle_line1": "1 53765U 22110A   25360.97162558  .00000039  00000+0  00000+0 0  9991",
        "tle_line2": "2 53765   0.0593  98.4997 0002788 152.3600 197.3421  1.00268307  5103"
      },
      "geometry": {
        "type": "Point",
        "coordinates": [
          -29.109594233554517,
          -0.05663440829450661
        ]
      }
    },
    {
      "type": "Feature",
      "properties": {
        "norad_id": 54048,
        "name": "EUTELSAT HOTBIRD 13F",
        "group": "eutelsat",
        "lat": 0.029571637843089076,
        "lon": -18.865567553470864,
        "alt_km": 35776.653419640155,
        "timestamp": "2025-12-27T15:27:10.815103+00:00",
        "meta_object_name": "EUTELSAT HOTBIRD 13F",
        "meta_object_id": "2022-134A",
        "meta_epoch": "2025-12-26T22:46:38.586144",
        "meta_mean_motion": 1.00271009,
        "meta_eccentricity": 0.00023679,
        "meta_inclination": 0.0512,
        "meta_ra_of_asc_node": 291.2358,
        "meta_arg_of_pericenter": 65.5103,
        "meta_mean_anomaly": 93.5854,
        "meta_ephemeris_type": 0,
        "meta_classification_type": "U",
        "meta_norad_cat_id": 54048,
        "meta_element_set_no": 999,
        "meta_rev_at_epoch": 1165,
        "meta_bstar": 0,
        "meta_mean_motion_dot": 1.09e-06,
        "meta_mean_motion_ddot": 0,
        "tle_line1": "1 54048U 22134A   25360.94905771  .00000109  00000+0  00000+0 0  9999",
        "tle_line2": "2 54048   0.0512 291.2358 0002367  65.5103  93.5854  1.00271009 11656"
      },
      "geometry": {
        "type": "Point",
        "coordinates": [
          -18.865567553470864,
          0.029571637843089076
        ]
      }
    },
    {
      "type": "Feature",
      "properties": {
        "norad_id": 54225,
        "name": "EUTELSAT HOTBIRD 13G",
        "group": "eutelsat",
        "lat": 0.033374630291660254,
        "lon": -18.893996017532054,
        "alt_km": 35796.01292067663,
        "timestamp": "2025-12-27T15:27:10.815116+00:00",
        "meta_object_name": "EUTELSAT HOTBIRD 13G",
        "meta_object_id": "2022-146A",
        "meta_epoch": "2025-12-26T22:46:38.586144",
        "meta_mean_motion": 1.00258057,
        "meta_eccentricity": 0.00022142,
        "meta_inclination": 0.0501,
        "meta_ra_of_asc_node": 221.1292,
        "meta_arg_of_pericenter": 348.4298,
        "meta_mean_anomaly": 240.7501,
        "meta_ephemeris_type": 0,
        "meta_classification_type": "U",
        "meta_norad_cat_id": 54225,
        "meta_element_set_no": 999,
        "meta_rev_at_epoch": 573,
        "meta_bstar": 0,
        "meta_mean_motion_dot": 1.07e-06,
        "meta_mean_motion_ddot": 0,
        "tle_line1": "1 54225U 22146A   25360.94905771  .00000107  00000+0  00000+0 0  9997",
        "tle_line2": "2 54225   0.0501 221.1292 0002214 348.4298 240.7501  1.00258057  5734"
      },
      "geometry": {
        "type": "Point",
        "coordinates": [
          -18.893996017532054,
          0.033374630291660254
        ]
      }
    }
  ]
}